{"type": "FeatureCollection", "features": [ {"type": "Feature", "properties": {"norad_id": 41836, "name": "HIMAWARI-9", "group": "weather", "lat": -0.03551976636883739, "lon": -38.39725710078267, "alt_km": 35780.9028335766, "timestamp": "2025-12-24T05:51:19.248806+00:00", "meta": {"OBJECT_NAME": "HIMAWARI-9", "OBJECT_ID": "2016-064A", "EPOCH": "2025-12-23T10:22:39.677952", "MEAN_MOTION": 1.00267853, "ECCENTRICITY": 0.00015362, "INCLINATION": 0.0172, "RA_OF_ASC_NODE": 36.5385, "ARG_OF_PERICENTER": 294.9233, "MEAN_ANOMALY": 57.1973, "EPHEMERIS_TYPE": 0, "CLASSIFICATION_TYPE": "U", "NORAD_CAT_ID": 41836, "ELEMENT_SET_NO": 999, "REV_AT_EPOCH": 3344, "BSTAR": 0, "MEAN_MOTION_DOT": 0, "MEAN_MOTION_DDOT": 0}, "tle": {"line1": "1 41836U 16064A   25357.43240368  .00000000  00000+0  00000+0 0  9999", "line2": "2 41836   0.0172  36.5385 0001536 294.9233  57.1973  1.00267853 33449"}}, "geometry": {"type": "Point", "coordinates": [-38.39725710078267, -0.03551976636883739]}}, {"type": "Feature", "properties": {"norad_id": 41866, "name": "GOES 16", "group": "weather", "lat": -0.01151574765531239, "lon": 76.18793843958953, "alt_km": 35799.11811593616, "timestamp": "2025-12-24T05:51:19.248819+00:00", "meta": {"OBJECT_NAME": "GOES 16", "OBJECT_ID": "2016-071A", "EPOCH": "2025-12-23T21:11:28.130208", "MEAN_MOTION": 1.00271831, "ECCENTRICITY": 0.00031304, "INCLINATION": 0.0743, "RA_OF_ASC_NODE": 102.1527, "ARG_OF_PERICENTER": 164.2103, "MEAN_ANOMALY": 39.506, "EPHEMERIS_TYPE": 0, "CLASSIFICATION_TYPE": "U", "NORAD_CAT_ID": 41866, "ELEMENT_SET_NO": 999, "REV_AT_EPOCH": 3334, "BSTAR": 0, "MEAN_MOTION_DOT": -7e-07, "MEAN_MOTION_DDOT": 0}, "tle": {"line1": "1 41866U 16071A   25357.88296447 -.00000070  00000+0  00000+0 0  9996", "line2": "2 41866   0.0743 102.1527 0003130 164.2103  39.5060  1.00271831 33342"}}, "geometry": {"type": "Point", "coordinates": [76.18793843958953, -0.01151574765531239]}}, {"type": "Feature", "properties": {"norad_id": 41882, "name": "FENGYUN 4A", "group": "weather", "lat": -1.2825105112510615, "lon": -55.48136827267847, "alt_km": 35784.74275301463, "timestamp": "2025-12-24T05:51:19.248831+00:00", "meta": {"OBJECT_NAME": "FENGYUN 4A", "OBJECT_ID": "2016-077A", "EPOCH": "2025-12-23T08:35:04.981056", "MEAN_MOTION": 1.00264066, "ECCENTRICITY": 0.00045686, "INCLINATION": 1.8742, "RA_OF_ASC_NODE": 82.3014, "ARG_OF_PERICENTER": 143.3346, "MEAN_ANOMALY": 118.943, "EPHEMERIS_TYPE": 0, "CLASSIFICATION_TYPE": "U", "NORAD_CAT_ID": 41882, "ELEMENT_SET_NO": 999, "REV_AT_EPOCH": 3316, "BSTAR": 0, "MEAN_MOTION_DOT": -3.37e-06, "MEAN_MOTION_DDOT": 0}, "tle": {"line1": "1 41882U 16077A   25357.35769654 -.00000337  00000+0  00000+0 0  9993", "line2": "2 41882   1.8742  82.3014 0004568 143.3346 118.9430  1.00264066 33166"}}, "geometry": {"type": "Point", "coordinates": [-55.48136827267847, -1.2825105112510615]}}, {"type": "Feature", "properties": {"norad_id": 41884, "name": "CYGFM05", "group": "weather", "lat": 24.00777221508754, "lon": 112.35698443480238, "alt_km": 423.8655406966145, "timestamp": "2025-12-24T05:51:19.248843+00:00", "meta": {"OBJECT_NAME": "CYGFM05", "OBJECT_ID": "2016-078A", "EPOCH": "2025-12-23T23:05:05.649216", "MEAN_MOTION": 15.48043341, "ECCENTRICITY": 0.00106472, "INCLINATION": 34.9605, "RA_OF_ASC_NODE": 333.8045, "ARG_OF_PERICENTER": 280.0192, "MEAN_ANOMALY": 79.9328, "EPHEMERIS_TYPE": 0, "CLASSIFICATION_TYPE": "U", "NORAD_CAT_ID": 41884, "ELEMENT_SET_NO": 999, "REV_AT_EPOCH": 50150, "BSTAR": 0.00036835021, "MEAN_MOTION_DOT": 0.00019921, "MEAN_MOTION_DDOT": 0}, "tle": {"line1": "1 41884U 16078A   25357.96187094  .00019921  00000+0  36835-3 0  9992", "line2": "2 41884  34.9605 333.8045 0010647 280.0192  79.9328 15.48043341501502"}}, "geometry": {"type": "Point", "coordinates": [112.35698443480238, 24.00777221508754]}}, {"type": "Feature", "properties": {"norad_id": 41885, "name": "CYGFM04", "group": "weather", "lat": 26.54983152345171, "lon": 80.6903597226616, "alt_km": 415.5070243964674, "timestamp": "2025-12-24T05:51:19.248854+00:00", "meta": {"OBJECT_NAME": "CYGFM04", "OBJECT_ID": "2016-078B", "EPOCH": "2025-12-23T21:34:42.992544", "MEAN_MOTION": 15.50823719, "ECCENTRICITY": 0.00093356, "INCLINATION": 34.9353, "RA_OF_ASC_NODE": 308.6658, "ARG_OF_PERICENTER": 304.0277, "MEAN_ANOMALY": 55.9558, "EPHEMERIS_TYPE": 0, "CLASSIFICATION_TYPE": "U", "NORAD_CAT_ID": 41885, "ELEMENT_SET_NO": 999, "REV_AT_EPOCH": 50167, "BSTAR": 0.00038094035, "MEAN_MOTION_DOT": 0.00022735, "MEAN_MOTION_DDOT": 0}, "tle": {"line1": "1 41885U 16078B   25357.89910871  .00022735  00000+0  38094-3 0  9998", "line2": "2 41885  34.9353 308.6658 0009335 304.0277  55.9558 15.50823719501671"}}, "geometry": {"type": "Point", "coordinates": [80.6903597226616, 26.54983152345171]}}, {"type": "Feature", "properties": {"norad_id": 41886, "name": "CYGFM02", "group": "weather", "lat": -11.09412072366063, "lon": 140.88655777768258, "alt_km": 412.76991759794873, "timestamp": "2025-12-24T05:51:19.248865+00:00", "meta": {"OBJECT_NAME": "CYGFM02", "OBJECT_ID": "2016-078C", "EPOCH": "2025-12-23T22:49:29.668512", "MEAN_MOTION": 15.52238864, "ECCENTRICITY": 0.00109258, "INCLINATION": 34.9441, "RA_OF_ASC_NODE": 306.5044, "ARG_OF_PERICENTER": 305.8769, "MEAN_ANOMALY": 54.0939, "EPHEMERIS_TYPE": 0, "CLASSIFICATION_TYPE": "U", "NORAD_CAT_ID": 41886, "ELEMENT_SET_NO": 999, "REV_AT_EPOCH": 50181, "BSTAR": 0.00038103343, "MEAN_MOTION_DOT": 0.00023948, "MEAN_MOTION_DDOT": 0}, "tle": {"line1": "1 41886U 16078C   25357.95103783  .00023948  00000+0  38103-3 0  9990", "line2": "2 41886  34.9441 306.5044 0010925 305.8769  54.0939 15.52238864501810"}}, "geometry": {"type": "Point", "coordinates": [140.88655777768258, -11.09412072366063]}}, {"type": "Feature", "properties": {"norad_id": 41887, "name": "CYGFM01", "group": "weather", "lat": -13.100011686081695, "lon": 173.69587465705933, "alt_km": 418.8676432946786, "timestamp": "2025-12-24T05:51:19.248875+00:00", "meta": {"OBJECT_NAME": "CYGFM01", "OBJECT_ID": "2016-078D", "EPOCH": "2025-12-23T22:47:33.391392", "MEAN_MOTION": 15.48633312, "ECCENTRICITY": 0.00104425, "INCLINATION": 34.9435, "RA_OF_ASC_NODE": 336.1536, "ARG_OF_PERICENTER": 272.1643, "MEAN_ANOMALY": 87.7883, "EPHEMERIS_TYPE": 0, "CLASSIFICATION_TYPE": "U", "NORAD_CAT_ID": 41887, "ELEMENT_SET_NO": 999, "REV_AT_EPOCH": 50144, "BSTAR": 0.00037592127, "MEAN_MOTION_DOT": 0.00020759, "MEAN_MOTION_DDOT": 0}, "tle": {"line1": "1 41887U 16078D   25357.94969203  .00020759  00000+0  37592-3 0  9995", "line2": "2 41887  34.9435 336.1536 0010442 272.1643  87.7883 15.48633312501442"}}, "geometry": {"type": "Point", "coordinates": [173.69587465705933, -13.100011686081695]}}, {"type": "Feature", "properties": {"norad_id": 41888, "name": "CYGFM08", "group": "weather", "lat": -28.887611165457432, "lon": -95.11145184991643, "alt_km": 410.925432103656, "timestamp": "2025-12-24T05:51:19.248886+00:00", "meta": {"OBJECT_NAME": "CYGFM08", "OBJECT_ID": "2016-078E", "EPOCH": "2025-12-23T22:22:21.359424", "MEAN_MOTION": 15.49868196, "ECCENTRICITY": 0.00116538, "INCLINATION": 34.9465, "RA_OF_ASC_NODE": 319.1281, "ARG_OF_PERICENTER": 295.3222, "MEAN_ANOMALY": 64.6293, "EPHEMERIS_TYPE": 0, "CLASSIFICATION_TYPE": "U", "NORAD_CAT_ID": 41888, "ELEMENT_SET_NO": 999, "REV_AT_EPOCH": 50167, "BSTAR": 0.00037459369, "MEAN_MOTION_DOT": 0.00021624, "MEAN_MOTION_DDOT": 0}, "tle": {"line1": "1 41888U 16078E   25357.93219166  .00021624  00000+0  37459-3 0  9995", "line2": "2 41888  34.9465 319.1281 0011653 295.3222  64.6293 15.49868196501674"}}, "geometry": {"type": "Point", "coordinates": [-95.11145184991643, -28.887611165457432]}}, {"type": "Feature", "properties": {"norad_id": 41890, "name": "CYGFM07", "group": "weather", "lat": -24.06212220744687, "lon": -93.74722133615958, "alt_km": 410.2405951210385, "timestamp": "2025-12-24T05:51:19.248897+00:00", "meta": {"OBJECT_NAME": "CYGFM07", "OBJECT_ID": "2016-078G", "EPOCH": "2025-12-23T22:19:24.477024", "MEAN_MOTION": 15.50462018, "ECCENTRICITY": 0.00095704, "INCLINATION": 34.9479, "RA_OF_ASC_NODE": 308.059, "ARG_OF_PERICENTER": 309.8336, "MEAN_ANOMALY": 50.1544, "EPHEMERIS_TYPE": 0, "CLASSIFICATION_TYPE": "U", "NORAD_CAT_ID": 41890, "ELEMENT_SET_NO": 999, "REV_AT_EPOCH": 50169, "BSTAR": 0.00037900965, "MEAN_MOTION_DOT": 0.00022329, "MEAN_MOTION_DDOT": 0}, "tle": {"line1": "1 41890U 16078G   25357.93014441  .00022329  00000+0  37901-3 0  9992", "line2": "2 41890  34.9479 308.0590 0009570 309.8336  50.1544 15.50462018501690"}}, "geometry": {"type": "Point", "coordinates": [-93.74722133615958, -24.06212220744687]}}, {"type": "Feature", "properties": {"norad_id": 41891, "name": "CYGFM03", "group": "weather", "lat": 19.117629985290957, "lon": 98.16224118478, "alt_km": 417.50769034319546, "timestamp": "2025-12-24T05:51:19.248907+00:00", "meta": {"OBJECT_NAME": "CYGFM03", "OBJECT_ID": "2016-078H", "EPOCH": "2025-12-23T23:03:02.711520", "MEAN_MOTION": 15.50358285, "ECCENTRICITY": 0.00093652, "INCLINATION": 34.9435, "RA_OF_ASC_NODE": 309.7862, "ARG_OF_PERICENTER": 297.5993, "MEAN_ANOMALY": 62.3778, "EPHEMERIS_TYPE": 0, "CLASSIFICATION_TYPE": "U", "NORAD_CAT_ID": 41891, "ELEMENT_SET_NO": 999, "REV_AT_EPOCH": 50167, "BSTAR": 0.00037091831, "MEAN_MOTION_DOT": 0.00021767, "MEAN_MOTION_DDOT": 0}, "tle": {"line1": "1 41891U 16078H   25357.96044805  .00021767  00000+0  37092-3 0  9999", "line2": "2 41891  34.9435 309.7862 0009365 297.5993  62.3778 15.50358285501679"}}, "geometry": {"type": "Point", "coordinates": [98.16224118478, 19.117629985290957]}}]}